{"fetched_at":"2026-07-07T07:58:36.206Z","source":"https://celestrak.org/NORAD/elements/gp.php?NAME=ICEYE&FORMAT=JSON","constellation":"iceye","records":[{"OBJECT_NAME":"ICEYE-X53","OBJECT_ID":"2025-135BJ","EPOCH":"2026-07-06T19:47:45.000096","CLASSIFICATION_TYPE":"U","MEAN_MOTION":15.00861017,"ECCENTRICITY":0.0001591,"INCLINATION":97.737,"RA_OF_ASC_NODE":304.5225,"ARG_OF_PERICENTER":164.3667,"MEAN_ANOMALY":195.7606,"EPHEMERIS_TYPE":0,"NORAD_CAT_ID":64584,"ELEMENT_SET_NO":999,"REV_AT_EPOCH":5702,"BSTAR":0.00004661,"MEAN_MOTION_DOT":0.00000533,"MEAN_MOTION_DDOT":0},{"OBJECT_NAME":"ICEYE-X65","OBJECT_ID":"2025-248H","EPOCH":"2026-07-05T23:08:52.095840","CLASSIFICATION_TYPE":"U","MEAN_MOTION":15.07888744,"ECCENTRICITY":0.0004567,"INCLINATION":45.4051,"RA_OF_ASC_NODE":35.4407,"ARG_OF_PERICENTER":146.5752,"MEAN_ANOMALY":213.5419,"EPHEMERIS_TYPE":0,"NORAD_CAT_ID":66300,"ELEMENT_SET_NO":999,"REV_AT_EPOCH":3835,"BSTAR":0.00028333,"MEAN_MOTION_DOT":0.00004168,"MEAN_MOTION_DDOT":0},{"OBJECT_NAME":"ICEYE-X66","OBJECT_ID":"2025-248J","EPOCH":"2026-07-05T23:16:33.325824","CLASSIFICATION_TYPE":"U","MEAN_MOTION":15.09135634,"ECCENTRICITY":0.0004222,"INCLINATION":45.4018,"RA_OF_ASC_NODE":34.5904,"ARG_OF_PERICENTER":141.1834,"MEAN_ANOMALY":218.9352,"EPHEMERIS_TYPE":0,"NORAD_CAT_ID":66301,"ELEMENT_SET_NO":999,"REV_AT_EPOCH":3834,"BSTAR":0.00030388,"MEAN_MOTION_DOT":0.0000465,"MEAN_MOTION_DDOT":0},{"OBJECT_NAME":"ICEYE-X67","OBJECT_ID":"2025-248K","EPOCH":"2026-07-05T23:51:56.802816","CLASSIFICATION_TYPE":"U","MEAN_MOTION":15.09118628,"ECCENTRICITY":0.0005744,"INCLINATION":45.4056,"RA_OF_ASC_NODE":34.0349,"ARG_OF_PERICENTER":142.5689,"MEAN_ANOMALY":217.5594,"EPHEMERIS_TYPE":0,"NORAD_CAT_ID":66302,"ELEMENT_SET_NO":999,"REV_AT_EPOCH":3836,"BSTAR":0.00028995,"MEAN_MOTION_DOT":0.00004424,"MEAN_MOTION_DDOT":0},{"OBJECT_NAME":"ICEYE-X58","OBJECT_ID":"2025-276CP","EPOCH":"2026-07-06T04:17:11.117760","CLASSIFICATION_TYPE":"U","MEAN_MOTION":15.17311288,"ECCENTRICITY":0.0001673,"INCLINATION":97.4196,"RA_OF_ASC_NODE":260.2422,"ARG_OF_PERICENTER":266.1985,"MEAN_ANOMALY":93.9057,"EPHEMERIS_TYPE":0,"NORAD_CAT_ID":66751,"ELEMENT_SET_NO":999,"REV_AT_EPOCH":3329,"BSTAR":0.00012987,"MEAN_MOTION_DOT":0.00002522,"MEAN_MOTION_DDOT":0},{"OBJECT_NAME":"ICEYE-X59","OBJECT_ID":"2025-276CQ","EPOCH":"2026-07-06T16:16:12.637056","CLASSIFICATION_TYPE":"U","MEAN_MOTION":15.00701577,"ECCENTRICITY":0.0000287,"INCLINATION":97.4364,"RA_OF_ASC_NODE":258.1442,"ARG_OF_PERICENTER":143.016,"MEAN_ANOMALY":217.1085,"EPHEMERIS_TYPE":0,"NORAD_CAT_ID":66752,"ELEMENT_SET_NO":999,"REV_AT_EPOCH":3319,"BSTAR":0.00032749,"MEAN_MOTION_DOT":0.00004092,"MEAN_MOTION_DDOT":0},{"OBJECT_NAME":"ICEYE-X60","OBJECT_ID":"2025-276CR","EPOCH":"2026-07-06T04:39:44.096832","CLASSIFICATION_TYPE":"U","MEAN_MOTION":15.1107886,"ECCENTRICITY":0.0001676,"INCLINATION":97.4227,"RA_OF_ASC_NODE":259.3001,"ARG_OF_PERICENTER":336.225,"MEAN_ANOMALY":23.8903,"EPHEMERIS_TYPE":0,"NORAD_CAT_ID":66753,"ELEMENT_SET_NO":999,"REV_AT_EPOCH":3323,"BSTAR":0.0002997,"MEAN_MOTION_DOT":0.00004954,"MEAN_MOTION_DDOT":0},{"OBJECT_NAME":"ICEYE-X61","OBJECT_ID":"2025-276CS","EPOCH":"2026-07-06T17:33:31.572288","CLASSIFICATION_TYPE":"U","MEAN_MOTION":15.18575772,"ECCENTRICITY":0.0001579,"INCLINATION":97.419,"RA_OF_ASC_NODE":260.8576,"ARG_OF_PERICENTER":264.5188,"MEAN_ANOMALY":95.5866,"EPHEMERIS_TYPE":0,"NORAD_CAT_ID":66754,"ELEMENT_SET_NO":999,"REV_AT_EPOCH":3338,"BSTAR":0.00013502,"MEAN_MOTION_DOT":0.00002724,"MEAN_MOTION_DDOT":0},{"OBJECT_NAME":"ICEYE-X62","OBJECT_ID":"2025-276CT","EPOCH":"2026-07-06T16:15:42.103296","CLASSIFICATION_TYPE":"U","MEAN_MOTION":15.10110133,"ECCENTRICITY":0.0000986,"INCLINATION":97.4192,"RA_OF_ASC_NODE":259.2757,"ARG_OF_PERICENTER":330.3489,"MEAN_ANOMALY":29.7685,"EPHEMERIS_TYPE":0,"NORAD_CAT_ID":66755,"ELEMENT_SET_NO":999,"REV_AT_EPOCH":3327,"BSTAR":0.00015858,"MEAN_MOTION_DOT":0.00002522,"MEAN_MOTION_DDOT":0},{"OBJECT_NAME":"ICEYE-X63","OBJECT_ID":"2026-004K","EPOCH":"2026-07-06T17:07:10.703712","CLASSIFICATION_TYPE":"U","MEAN_MOTION":14.88338054,"ECCENTRICITY":0.0005782,"INCLINATION":97.8008,"RA_OF_ASC_NODE":186.0478,"ARG_OF_PERICENTER":72.5,"MEAN_ANOMALY":287.6848,"EPHEMERIS_TYPE":0,"NORAD_CAT_ID":67372,"ELEMENT_SET_NO":999,"REV_AT_EPOCH":2620,"BSTAR":0.00010682,"MEAN_MOTION_DOT":0.00000934,"MEAN_MOTION_DDOT":0},{"OBJECT_NAME":"ICEYE-X64","OBJECT_ID":"2026-004L","EPOCH":"2026-07-06T11:47:00.093120","CLASSIFICATION_TYPE":"U","MEAN_MOTION":14.87972131,"ECCENTRICITY":0.0007572,"INCLINATION":97.8021,"RA_OF_ASC_NODE":185.7515,"ARG_OF_PERICENTER":76.8075,"MEAN_ANOMALY":283.3986,"EPHEMERIS_TYPE":0,"NORAD_CAT_ID":67373,"ELEMENT_SET_NO":999,"REV_AT_EPOCH":2616,"BSTAR":0.00015595,"MEAN_MOTION_DOT":0.00001376,"MEAN_MOTION_DDOT":0},{"OBJECT_NAME":"ICEYE-X71","OBJECT_ID":"2026-067CG","EPOCH":"2026-07-06T20:23:41.049888","CLASSIFICATION_TYPE":"U","MEAN_MOTION":14.91768363,"ECCENTRICITY":0.0001808,"INCLINATION":97.7617,"RA_OF_ASC_NODE":145.7835,"ARG_OF_PERICENTER":15.4031,"MEAN_ANOMALY":344.7243,"EPHEMERIS_TYPE":0,"NORAD_CAT_ID":68494,"ELEMENT_SET_NO":999,"REV_AT_EPOCH":1465,"BSTAR":0.0002213,"MEAN_MOTION_DOT":0.00002174,"MEAN_MOTION_DDOT":0},{"OBJECT_NAME":"ICEYE-X73","OBJECT_ID":"2026-067CJ","EPOCH":"2026-07-06T09:52:09.910848","CLASSIFICATION_TYPE":"U","MEAN_MOTION":14.92319869,"ECCENTRICITY":0.0000753,"INCLINATION":97.7612,"RA_OF_ASC_NODE":145.4302,"ARG_OF_PERICENTER":164.1333,"MEAN_ANOMALY":195.991,"EPHEMERIS_TYPE":0,"NORAD_CAT_ID":68496,"ELEMENT_SET_NO":999,"REV_AT_EPOCH":1459,"BSTAR":0.00025539,"MEAN_MOTION_DOT":0.00002554,"MEAN_MOTION_DDOT":0},{"OBJECT_NAME":"ICEYE-X75","OBJECT_ID":"2026-067CK","EPOCH":"2026-07-06T09:57:11.872800","CLASSIFICATION_TYPE":"U","MEAN_MOTION":14.92161011,"ECCENTRICITY":0.0000684,"INCLINATION":97.7601,"RA_OF_ASC_NODE":145.4051,"ARG_OF_PERICENTER":151.1625,"MEAN_ANOMALY":208.9632,"EPHEMERIS_TYPE":0,"NORAD_CAT_ID":68497,"ELEMENT_SET_NO":999,"REV_AT_EPOCH":1459,"BSTAR":0.00010985,"MEAN_MOTION_DOT":0.00001062,"MEAN_MOTION_DDOT":0},{"OBJECT_NAME":"ICEYE-X74","OBJECT_ID":"2026-067CN","EPOCH":"2026-07-06T20:22:26.433984","CLASSIFICATION_TYPE":"U","MEAN_MOTION":14.9176876,"ECCENTRICITY":0.0001619,"INCLINATION":97.7623,"RA_OF_ASC_NODE":145.7924,"ARG_OF_PERICENTER":13.0249,"MEAN_ANOMALY":347.1011,"EPHEMERIS_TYPE":0,"NORAD_CAT_ID":68500,"ELEMENT_SET_NO":999,"REV_AT_EPOCH":1465,"BSTAR":0.00022768,"MEAN_MOTION_DOT":0.00002239,"MEAN_MOTION_DDOT":0},{"OBJECT_NAME":"ICEYE-X76","OBJECT_ID":"2026-067CQ","EPOCH":"2026-07-06T13:49:52.368384","CLASSIFICATION_TYPE":"U","MEAN_MOTION":14.91739271,"ECCENTRICITY":0.0001326,"INCLINATION":97.7634,"RA_OF_ASC_NODE":145.5413,"ARG_OF_PERICENTER":359.9774,"MEAN_ANOMALY":0.1445,"EPHEMERIS_TYPE":0,"NORAD_CAT_ID":68502,"ELEMENT_SET_NO":999,"REV_AT_EPOCH":1461,"BSTAR":0.0001175,"MEAN_MOTION_DOT":0.00001128,"MEAN_MOTION_DDOT":0}]}
