ICEYE-X53               
1 64584U 25135BJ  26187.82482639  .00000533  00000+0  46610-4 0  9990
2 64584  97.7370 304.5225 0001591 164.3667 195.7606 15.00861017 57029
ICEYE-X65               
1 66300U 25248H   26186.96449185  .00004168  00000+0  28333-3 0  9995
2 66300  45.4051  35.4407 0004567 146.5752 213.5419 15.07888744 38357
ICEYE-X66               
1 66301U 25248J   26186.96983016  .00004650  00000+0  30388-3 0  9991
2 66301  45.4018  34.5904 0004222 141.1834 218.9352 15.09135634 38342
ICEYE-X67               
1 66302U 25248K   26186.99440744  .00004424  00000+0  28995-3 0  9991
2 66302  45.4056  34.0349 0005744 142.5689 217.5594 15.09118628 38365
ICEYE-X58               
1 66751U 25276CP  26187.17860090  .00002522  00000+0  12987-3 0  9992
2 66751  97.4196 260.2422 0001673 266.1985  93.9057 15.17311288 33292
ICEYE-X59               
1 66752U 25276CQ  26187.67792404  .00004092  00000+0  32749-3 0  9993
2 66752  97.4364 258.1442 0000287 143.0160 217.1085 15.00701577 33192
ICEYE-X60               
1 66753U 25276CR  26187.19426038  .00004954  00000+0  29970-3 0  9997
2 66753  97.4227 259.3001 0001676 336.2250  23.8903 15.11078860 33234
ICEYE-X61               
1 66754U 25276CS  26187.73161542  .00002724  00000+0  13502-3 0  9991
2 66754  97.4190 260.8576 0001579 264.5188  95.5866 15.18575772 33384
ICEYE-X62               
1 66755U 25276CT  26187.67757064  .00002522  00000+0  15858-3 0  9997
2 66755  97.4192 259.2757 0000986 330.3489  29.7685 15.10110133 33271
ICEYE-X63               
1 67372U 26004K   26187.71331833  .00000934  00000+0  10682-3 0  9995
2 67372  97.8008 186.0478 0005782  72.5000 287.6848 14.88338054 26206
ICEYE-X64               
1 67373U 26004L   26187.49097330  .00001376  00000+0  15595-3 0  9991
2 67373  97.8021 185.7515 0007572  76.8075 283.3986 14.87972131 26168
ICEYE-X71               
1 68494U 26067CG  26187.84978067  .00002174  00000+0  22130-3 0  9999
2 68494  97.7617 145.7835 0001808  15.4031 344.7243 14.91768363 14655
ICEYE-X73               
1 68496U 26067CJ  26187.41122582  .00002554  00000+0  25539-3 0  9995
2 68496  97.7612 145.4302 0000753 164.1333 195.9910 14.92319869 14597
ICEYE-X75               
1 68497U 26067CK  26187.41472075  .00001062  00000+0  10985-3 0  9993
2 68497  97.7601 145.4051 0000684 151.1625 208.9632 14.92161011 14590
ICEYE-X74               
1 68500U 26067CN  26187.84891706  .00002239  00000+0  22768-3 0  9990
2 68500  97.7623 145.7924 0001619  13.0249 347.1011 14.91768760 14655
ICEYE-X76               
1 68502U 26067CQ  26187.57630056  .00001128  00000+0  11750-3 0  9996
2 68502  97.7634 145.5413 0001326 359.9774   0.1445 14.91739271 14618
